[{"OBJECT_NAME":"STARLINK-36089","OBJECT_ID":"2025-286Y","EPOCH":"2026-02-22T17:46:47.116704","MEAN_MOTION":15.30211814,"ECCENTRICITY":0.0001436,"INCLINATION":53.1609,"RA_OF_ASC_NODE":68.1918,"ARG_OF_PERICENTER":85.496,"MEAN_ANOMALY":274.6205,"EPHEMERIS_TYPE":0,"CLASSIFICATION_TYPE":"U","NORAD_CAT_ID":66947,"ELEMENT_SET_NO":999,"REV_AT_EPOCH":1312,"BSTAR":0.00080161,"MEAN_MOTION_DOT":0.00023466,"MEAN_MOTION_DDOT":0},{"OBJECT_NAME":"STARLINK-36116","OBJECT_ID":"2025-286Z","EPOCH":"2026-02-22T06:18:01.350432","MEAN_MOTION":15.3020088,"ECCENTRICITY":0.0001706,"INCLINATION":53.1592,"RA_OF_ASC_NODE":70.1836,"ARG_OF_PERICENTER":71.3875,"MEAN_ANOMALY":288.7311,"EPHEMERIS_TYPE":0,"CLASSIFICATION_TYPE":"U","NORAD_CAT_ID":66948,"ELEMENT_SET_NO":999,"REV_AT_EPOCH":1304,"BSTAR":0.00084405,"MEAN_MOTION_DOT":0.00024723,"MEAN_MOTION_DDOT":0},{"OBJECT_NAME":"STARLINK-36096","OBJECT_ID":"2025-286AA","EPOCH":"2026-02-22T18:09:25.226208","MEAN_MOTION":15.30204905,"ECCENTRICITY":0.0001451,"INCLINATION":53.162,"RA_OF_ASC_NODE":67.5801,"ARG_OF_PERICENTER":90.0188,"MEAN_ANOMALY":270.0979,"EPHEMERIS_TYPE":0,"CLASSIFICATION_TYPE":"U","NORAD_CAT_ID":66949,"ELEMENT_SET_NO":999,"REV_AT_EPOCH":1313,"BSTAR":0.00073931,"MEAN_MOTION_DOT":0.00021604,"MEAN_MOTION_DDOT":0},{"OBJECT_NAME":"STARLINK-36111","OBJECT_ID":"2025-286AB","EPOCH":"2026-02-22T17:36:08.923104","MEAN_MOTION":15.30200625,"ECCENTRICITY":0.0001308,"INCLINATION":53.1595,"RA_OF_ASC_NODE":68.1459,"ARG_OF_PERICENTER":87.8071,"MEAN_ANOMALY":272.308,"EPHEMERIS_TYPE":0,"CLASSIFICATION_TYPE":"U","NORAD_CAT_ID":66950,"ELEMENT_SET_NO":999,"REV_AT_EPOCH":1312,"BSTAR":0.00095737,"MEAN_MOTION_DOT":0.00028103,"MEAN_MOTION_DDOT":0},{"OBJECT_NAME":"STARLINK-35999","OBJECT_ID":"2025-286AC","EPOCH":"2026-02-22T06:24:07.193088","MEAN_MOTION":15.30201168,"ECCENTRICITY":0.0001331,"INCLINATION":53.1587,"RA_OF_ASC_NODE":70.2064,"ARG_OF_PERICENTER":85.561,"MEAN_ANOMALY":274.5542,"EPHEMERIS_TYPE":0,"CLASSIFICATION_TYPE":"U","NORAD_CAT_ID":66951,"ELEMENT_SET_NO":999,"REV_AT_EPOCH":1305,"BSTAR":0.00068621,"MEAN_MOTION_DOT":0.0002002,"MEAN_MOTION_DDOT":0},{"OBJECT_NAME":"STARLINK-36122","OBJECT_ID":"2025-286AD","EPOCH":"2026-02-22T21:04:01.362720","MEAN_MOTION":15.30179523,"ECCENTRICITY":0.0001424,"INCLINATION":53.1607,"RA_OF_ASC_NODE":67.6257,"ARG_OF_PERICENTER":96.796,"MEAN_ANOMALY":263.3203,"EPHEMERIS_TYPE":0,"CLASSIFICATION_TYPE":"U","NORAD_CAT_ID":66952,"ELEMENT_SET_NO":999,"REV_AT_EPOCH":1314,"BSTAR":0.00044816,"MEAN_MOTION_DOT":0.00012929,"MEAN_MOTION_DDOT":0},{"OBJECT_NAME":"STARLINK-35887","OBJECT_ID":"2025-288A","EPOCH":"2026-02-22T20:00:03.000384","MEAN_MOTION":15.28411125,"ECCENTRICITY":0.0001599,"INCLINATION":43.0002,"RA_OF_ASC_NODE":107.2934,"ARG_OF_PERICENTER":265.7875,"MEAN_ANOMALY":183.286,"EPHEMERIS_TYPE":0,"CLASSIFICATION_TYPE":"U","NORAD_CAT_ID":66959,"ELEMENT_SET_NO":999,"REV_AT_EPOCH":573,"BSTAR":-0.00042713,"MEAN_MOTION_DOT":-0.00012301,"MEAN_MOTION_DDOT":0},{"OBJECT_NAME":"STARLINK-35879","OBJECT_ID":"2025-288B","EPOCH":"2026-02-22T19:52:25.442400","MEAN_MOTION":15.27594757,"ECCENTRICITY":0.0001212,"INCLINATION":42.9984,"RA_OF_ASC_NODE":107.4605,"ARG_OF_PERICENTER":277.6418,"MEAN_ANOMALY":82.4296,"EPHEMERIS_TYPE":0,"CLASSIFICATION_TYPE":"U","NORAD_CAT_ID":66960,"ELEMENT_SET_NO":999,"REV_AT_EPOCH":1301,"BSTAR":0.0011127,"MEAN_MOTION_DOT":0.00030498,"MEAN_MOTION_DDOT":0},{"OBJECT_NAME":"STARLINK-35761","OBJECT_ID":"2025-288C","EPOCH":"2026-02-22T20:00:03.000384","MEAN_MOTION":15.2757223,"ECCENTRICITY":0.000119,"INCLINATION":42.9999,"RA_OF_ASC_NODE":106.974,"ARG_OF_PERICENTER":308.4426,"MEAN_ANOMALY":271.8346,"EPHEMERIS_TYPE":0,"CLASSIFICATION_TYPE":"U","NORAD_CAT_ID":66961,"ELEMENT_SET_NO":999,"REV_AT_EPOCH":591,"BSTAR":-0.00025887,"MEAN_MOTION_DOT":-7.377e-5,"MEAN_MOTION_DDOT":0},{"OBJECT_NAME":"STARLINK-35874","OBJECT_ID":"2025-288D","EPOCH":"2026-02-22T04:49:43.555584","MEAN_MOTION":15.27618865,"ECCENTRICITY":0.0001528,"INCLINATION":43.0008,"RA_OF_ASC_NODE":111.3525,"ARG_OF_PERICENTER":264.3967,"MEAN_ANOMALY":95.6711,"EPHEMERIS_TYPE":0,"CLASSIFICATION_TYPE":"U","NORAD_CAT_ID":66962,"ELEMENT_SET_NO":999,"REV_AT_EPOCH":1291,"BSTAR":0.0014227,"MEAN_MOTION_DOT":0.00039142,"MEAN_MOTION_DDOT":0},{"OBJECT_NAME":"STARLINK-36133","OBJECT_ID":"2025-288E","EPOCH":"2026-02-22T19:54:15.659424","MEAN_MOTION":15.27601512,"ECCENTRICITY":0.0001913,"INCLINATION":42.998,"RA_OF_ASC_NODE":107.4623,"ARG_OF_PERICENTER":280.2558,"MEAN_ANOMALY":79.8078,"EPHEMERIS_TYPE":0,"CLASSIFICATION_TYPE":"U","NORAD_CAT_ID":66963,"ELEMENT_SET_NO":999,"REV_AT_EPOCH":1301,"BSTAR":0.0008112,"MEAN_MOTION_DOT":0.00022143,"MEAN_MOTION_DDOT":0},{"OBJECT_NAME":"STARLINK-36104","OBJECT_ID":"2025-288F","EPOCH":"2026-02-20T05:32:12.633792","MEAN_MOTION":15.28435556,"ECCENTRICITY":6.74e-5,"INCLINATION":42.9968,"RA_OF_ASC_NODE":122.3672,"ARG_OF_PERICENTER":249.1418,"MEAN_ANOMALY":110.9362,"EPHEMERIS_TYPE":0,"CLASSIFICATION_TYPE":"U","NORAD_CAT_ID":66964,"ELEMENT_SET_NO":999,"REV_AT_EPOCH":1261,"BSTAR":0.00076338,"MEAN_MOTION_DOT":0.00021361,"MEAN_MOTION_DDOT":0},{"OBJECT_NAME":"STARLINK-36067","OBJECT_ID":"2025-288G","EPOCH":"2026-02-22T20:00:03.000384","MEAN_MOTION":15.27606414,"ECCENTRICITY":0.0001688,"INCLINATION":42.9999,"RA_OF_ASC_NODE":107.1285,"ARG_OF_PERICENTER":270.675,"MEAN_ANOMALY":245.8588,"EPHEMERIS_TYPE":0,"CLASSIFICATION_TYPE":"U","NORAD_CAT_ID":66965,"ELEMENT_SET_NO":999,"REV_AT_EPOCH":545,"BSTAR":-0.00024088,"MEAN_MOTION_DOT":-6.89e-5,"MEAN_MOTION_DDOT":0},{"OBJECT_NAME":"STARLINK-36139","OBJECT_ID":"2025-288H","EPOCH":"2026-02-22T20:00:03.000384","MEAN_MOTION":15.27571761,"ECCENTRICITY":0.0001634,"INCLINATION":43.0011,"RA_OF_ASC_NODE":107.1394,"ARG_OF_PERICENTER":274.0071,"MEAN_ANOMALY":235.5463,"EPHEMERIS_TYPE":0,"CLASSIFICATION_TYPE":"U","NORAD_CAT_ID":66966,"ELEMENT_SET_NO":999,"REV_AT_EPOCH":584,"BSTAR":0.00010896,"MEAN_MOTION_DOT":2.737e-5,"MEAN_MOTION_DDOT":0},{"OBJECT_NAME":"STARLINK-36136","OBJECT_ID":"2025-288J","EPOCH":"2026-02-22T05:28:21.386784","MEAN_MOTION":15.27592583,"ECCENTRICITY":0.0001397,"INCLINATION":43,"RA_OF_ASC_NODE":110.6957,"ARG_OF_PERICENTER":262.6359,"MEAN_ANOMALY":97.4334,"EPHEMERIS_TYPE":0,"CLASSIFICATION_TYPE":"U","NORAD_CAT_ID":66967,"ELEMENT_SET_NO":999,"REV_AT_EPOCH":1292,"BSTAR":0.0011909,"MEAN_MOTION_DOT":0.00032665,"MEAN_MOTION_DDOT":0},{"OBJECT_NAME":"STARLINK-36152","OBJECT_ID":"2025-288K","EPOCH":"2026-02-22T04:27:30.535776","MEAN_MOTION":15.27589685,"ECCENTRICITY":3.13e-5,"INCLINATION":42.992,"RA_OF_ASC_NODE":111.2302,"ARG_OF_PERICENTER":149.6069,"MEAN_ANOMALY":210.48,"EPHEMERIS_TYPE":0,"CLASSIFICATION_TYPE":"U","NORAD_CAT_ID":66968,"ELEMENT_SET_NO":999,"REV_AT_EPOCH":1291,"BSTAR":0.00086079,"MEAN_MOTION_DOT":0.00023508,"MEAN_MOTION_DDOT":0}]
