STARLINK-36089          
1 66947U 25286Y   26053.74082311  .00023466  00000+0  80161-3 0  9996
2 66947  53.1609  68.1918 0001436  85.4960 274.6205 15.30211814 13126
STARLINK-36116          
1 66948U 25286Z   26053.26251563  .00024723  00000+0  84405-3 0  9993
2 66948  53.1592  70.1836 0001706  71.3875 288.7311 15.30200880 13045
STARLINK-36096          
1 66949U 25286AA  26053.75654197  .00021604  00000+0  73931-3 0  9995
2 66949  53.1620  67.5801 0001451  90.0188 270.0979 15.30204905 13138
STARLINK-36111          
1 66950U 25286AB  26053.73343661  .00028103  00000+0  95737-3 0  9995
2 66950  53.1595  68.1459 0001308  87.8071 272.3080 15.30200625 13125
STARLINK-35999          
1 66951U 25286AC  26053.26674992  .00020020  00000+0  68621-3 0  9990
2 66951  53.1587  70.2064 0001331  85.5610 274.5542 15.30201168 13055
STARLINK-36122          
1 66952U 25286AD  26053.87779355  .00012929  00000+0  44816-3 0  9996
2 66952  53.1607  67.6257 0001424  96.7960 263.3203 15.30179523 13147
STARLINK-35887          
1 66959U 25288A   26053.83336806 -.00012301  00000+0 -42713-3 0  9991
2 66959  43.0002 107.2934 0001599 265.7875 183.2860 15.28411125  5739
STARLINK-35879          
1 66960U 25288B   26053.82807225  .00030498  00000+0  11127-2 0  9999
2 66960  42.9984 107.4605 0001212 277.6418  82.4296 15.27594757 13017
STARLINK-35761          
1 66961U 25288C   26053.83336806 -.00007377  00000+0 -25887-3 0  9994
2 66961  42.9999 106.9740 0001190 308.4426 271.8346 15.27572230  5917
STARLINK-35874          
1 66962U 25288D   26053.20119856  .00039142  00000+0  14227-2 0  9998
2 66962  43.0008 111.3525 0001528 264.3967  95.6711 15.27618865 12918
STARLINK-36133          
1 66963U 25288E   26053.82934791  .00022143  00000+0  81120-3 0  9990
2 66963  42.9980 107.4623 0001913 280.2558  79.8078 15.27601512 13015
STARLINK-36104          
1 66964U 25288F   26051.23070178  .00021361  00000+0  76338-3 0  9990
2 66964  42.9968 122.3672 0000674 249.1418 110.9362 15.28435556 12616
STARLINK-36067          
1 66965U 25288G   26053.83336806 -.00006890  00000+0 -24088-3 0  9999
2 66965  42.9999 107.1285 0001688 270.6750 245.8588 15.27606414  5450
STARLINK-36139          
1 66966U 25288H   26053.83336806  .00002737  00000+0  10896-3 0  9996
2 66966  43.0011 107.1394 0001634 274.0071 235.5463 15.27571761  5841
STARLINK-36136          
1 66967U 25288J   26053.22802531  .00032665  00000+0  11909-2 0  9991
2 66967  43.0000 110.6957 0001397 262.6359  97.4334 15.27592583 12926
STARLINK-36152          
1 66968U 25288K   26053.18577009  .00023508  00000+0  86079-3 0  9993
2 66968  42.9920 111.2302 0000313 149.6069 210.4800 15.27589685 12919
